EUTELSAT 33A            
1 27948U 03043A   16205.08244464  .00000143  00000-0  00000+0 0  9993
2 27948   1.7103  79.6571 0000804 210.5830  71.5349  1.00273267 47064
GALAXY 13 (HORIZONS-1)  
1 27954U 03044A   16205.39878418  .00000038  00000-0  00000+0 0  9990
2 27954   0.0253  76.3641 0001660 294.0337 307.6723  1.00271804 46907
ZHONGXING-20            
1 28082U 03052A   16204.87275094 -.00000335  00000-0  00000+0 0  9996
2 28082   2.8617  72.9074 0001867  65.2520 220.2956  1.00275619 46497
YAMAL 202               
1 28089U 03053A   16204.92782358  .00000110  00000-0  00000-0 0  9997
2 28089   0.0462  81.5258 0003114  47.1391 195.4297  1.00274314 46418
AMOS-2                  
1 28132U 03059A   16204.19570463 -.00000043  00000-0  00000+0 0  9998
2 28132   0.0358  79.0010 0003735  31.0963 256.6912  1.00272405 46126
EXPRESS-AM22 (SESAT 2)  
1 28134U 03060A   16204.66662477 -.00000146  00000-0  00000+0 0  9995
2 28134   0.0285 151.5338 0001241  31.1848  78.2092  1.00272328 46018
AMC-10 (GE-10)          
1 28154U 04003A   16205.23912862  .00000078  00000-0  00000+0 0  9998
2 28154   0.0471 272.3758 0003006 195.4852 144.6166  1.00272299 45673
ABS-4 (MOBISAT-1)       
1 28184U 04007A   16205.05813506  .00000031  00000-0  00000+0 0  9999
2 28184   0.0047   1.8759 0001691 111.7810 269.4604  1.00272326 45320
EUTELSAT 7A             
1 28187U 04008A   16204.83997137  .00000038  00000-0  00000-0 0  9999
2 28187   0.0677 343.7259 0005242 155.5080 111.1469  1.00270540 45133
DIRECTV 7S              
1 28238U 04016A   16204.65951256 -.00000008  00000-0  00000+0 0  9994
2 28238   0.0301 323.4123 0003033 164.6835 291.0810  1.00271536 44801
AMC-11 (GE-11)          
1 28252U 04017A   16205.42931836  .00000059  00000-0  00000+0 0  9994
2 28252   0.0230 347.6514 0002554 145.7414 191.7289  1.00272903 44445
INTELSAT 10-02          
1 28358U 04022A   16204.83979957 -.00000020  00000-0  00000+0 0  9996
2 28358   0.0128  97.1188 0000664  17.6650 127.5553  1.00272256 44364
APSTAR 5 (TELSTAR 18)   
1 28364U 04024A   16204.59493927 -.00000303  00000-0  00000-0 0  9991
2 28364   0.0344 271.7781 0002996 208.8981 172.2512  1.00270409 44282
ANIK F2                 
1 28378U 04027A   16205.39002172 -.00000060  00000-0  00000+0 0  9995
2 28378   0.0164  32.1659 0000388 107.5578 191.1629  1.00271523 44096
AMAZONAS 1              
1 28393U 04031A   16205.16594869 -.00000256  00000-0  00000+0 0  9998
2 28393   1.0685  85.3551 0003284  54.6879 184.8453  1.00270688 43866
AMC-15                  
1 28446U 04041A   16204.53779296 -.00000098  00000-0  00000+0 0  9991
2 28446   0.0554 284.5056 0002804 197.7365 267.0143  1.00271348 43121
AMC-16                  
1 28472U 04048A   16205.29586463 -.00000216  00000-0  00000+0 0  9995
2 28472   0.0517 282.3556 0002880 216.8253 183.7727  1.00270415 42555
NSS-10 (AMC-12)         
1 28526U 05003A   16205.41061640 -.00000261  00000-0  00000+0 0  9996
2 28526   0.0358 309.4699 0003000 179.0203 283.4428  1.00272579 42062
XTAR-EUR                
1 28542U 05005A   16205.08273967  .00000141  00000-0  00000+0 0  9992
2 28542   0.0965 269.8375 0002366 216.9912 233.1877  1.00270703 41927
XM-3 (RHYTHM)           
1 28626U 05008A   16205.29586463 -.00000215  00000-0  00000+0 0  9992
2 28626   0.0344 209.6208 0000472 277.3535 195.8757  1.00270310 41808
INMARSAT 4-F1           
1 28628U 05009A   16202.90834501 -.00000266  00000-0  00000+0 0  9995
2 28628   2.8301   7.2588 0003026 107.9348 294.4174  1.00271485 41403
EXPRESS-AM2             
1 28629U 05010A   16205.50931221 -.00000148  00000-0  00000+0 0  9993
2 28629   1.6649  80.8920 0001492  91.6169  32.5278  1.00271606 41454
APSTAR 6                
1 28638U 05012A   16205.49200802 -.00000328  00000-0  00000+0 0  9997
2 28638   0.0274  71.6773 0002997  43.4215 137.6865  1.00271057 66156
SPACEWAY 1              
1 28644U 05015A   16204.45441602 -.00000110  00000-0  00000-0 0  9997
2 28644   0.0131 192.1904 0000411   9.5713 159.5324  1.00269364 10324
DIRECTV 8               
1 28659U 05019A   16204.44518188 -.00000124  00000-0  00000+0 0  9994
2 28659   0.0118  63.2399 0003253  67.6114 229.1721  1.00271247 40925
GALAXY 28 (G-28)        
1 28702U 05022A   16205.29941972 -.00000195  00000-0  00000+0 0  9990
2 28702   0.0162  64.1896 0000822 283.4956 332.5520  1.00272605 40561
EXPRESS-AM3             
1 28707U 05023A   16203.99868641 -.00000329  00000-0  00000+0 0  9991
2 28707   0.0659 234.4195 0000379 267.8803 260.3828  1.00270132 40589
THAICOM 4               
1 28786U 05028A   16204.43675896 -.00000371  00000-0  00000+0 0  9998
2 28786   0.0166  43.1986 0002558  79.3604  94.7580  1.00270646 40076
GALAXY 14 (G-14)        
1 28790U 05030A   16205.36147014  .00000027  00000-0  00000+0 0  9992
2 28790   0.0400 286.0875 0002527 199.2098 181.3528  1.00271243 40048
ANIK F1R                
1 28868U 05036A   16203.42688318 -.00000082  00000-0  00000+0 0  9998
2 28868   0.0254 323.1722 0002191 138.4042 244.4289  1.00275817 39871
GALAXY 15 (G-15)        
1 28884U 05041A   16205.43149428  .00000069  00000-0  00000+0 0  9993
2 28884   0.0655 273.7381 0001483 225.7869 184.3988  1.00272761 39362
SYRACUSE 3A             
1 28885U 05041B   16205.00535459  .00000119  00000-0  00000+0 0  9996
2 28885   0.0231  70.5434 0002657  47.2803 232.2370  1.00272396 39467
INMARSAT 4-F2           
1 28899U 05044A   16205.00728642  .00000002  00000-0  00000+0 0  9993
2 28899   2.5102   7.2672 0002605 122.8294 237.5825  1.00271969 39248
TELKOM 2                
1 28902U 05046A   16205.49355064 -.00000373  00000-0  00000+0 0  9999
2 28902   0.0337 257.2515 0001162 240.6096  99.4420  1.00269878 38987
SPACEWAY 2              
1 28903U 05046B   16205.45392164 -.00000137  00000-0  00000+0 0  9996
2 28903   0.0057 178.7898 0000044 138.3862  48.7772  1.00271995 39240
INSAT-4A                
1 28911U 05049A   16204.93304791 -.00000174  00000-0  00000+0 0  9990
2 28911   0.0449 244.1024 0002400 338.9906 136.8830  1.00270926 38839
METEOSAT-9 (MSG-2)      
1 28912U 05049B   16205.04123925  .00000051  00000-0  00000+0 0  9995
2 28912   1.5659  68.6785 0000527 308.9949 307.5834  1.00270691 38812
EUTELSAT 172A (GE-23)   
1 28924U 05052A   16205.44522537 -.00000016  00000-0  00000+0 0  9990
2 28924   0.0640  19.6564 0005334 105.3783 148.8521  1.00271907 38726
ECHOSTAR 10             
1 28935U 06003A   16205.33518234 -.00000065  00000-0  00000+0 0  9990
2 28935   0.0544 275.5200 0002471 239.9829 156.4639  1.00271251 38250
HIMAWARI-7 (MTSAT-2)    
1 28937U 06004A   16204.87367558 -.00000252  00000-0  00000+0 0  9990
2 28937   0.0443 275.0802 0003889 193.3609 292.1438  1.00272644 38090
SPAINSAT                
1 28945U 06007A   16205.24611599 -.00000226  00000-0  00000+0 0  9992
2 28945   0.0175 251.7611 0003729 263.7318 204.5248  1.00268629 37972
EUTELSAT HOT BIRD 13E   
1 28946U 06007B   16205.12713515  .00000077  00000-0  00000+0 0  9994
2 28946   0.0138 109.0338 0006252  37.1361 213.8651  1.00270985 38046
JCSAT-5A                
1 29045U 06010A   16204.94102211 -.00000338  00000-0  00000-0 0  9995
2 29045   0.0427 253.4617 0001856 223.2211 295.2427  1.00271514 37514
ASTRA 1KR               
1 29055U 06012A   16205.21257001  .00000110  00000-0  00000+0 0  9993
2 29055   0.0667 272.0355 0003047 257.3733 227.6702  1.00271933 37484
GOES 13                 
1 29155U 06018A   16205.37180291 -.00000259  00000-0  00000+0 0  9998
2 29155   0.1113 263.5026 0004140 194.1961 262.3428  1.00282747 37260
EUTELSAT 113 WEST A     
1 29162U 06020A   16204.47885067 -.00000046  00000-0  00000+0 0  9996
2 29162   0.0243 268.0211 0002741 222.8628 229.1349  1.00271750 37200
THAICOM 5               
1 29163U 06020B   16204.95149022 -.00000131  00000-0  00000-0 0  9990
2 29163   0.0641 263.2759 0001933 276.8321 181.9982  1.00273267 37234
GALAXY 16 (G-16)        
1 29236U 06023A   16205.45392221 -.00000137  00000-0  00000+0 0  9996
2 29236   0.0538 244.3708 0003191 237.1697 244.4739  1.00273437 37018
EUTELSAT HOT BIRD 13B   
1 29270U 06032A   16204.70024678  .00000077  00000-0  00000-0 0  9992
2 29270   0.0607   6.6437 0002988  90.8325 108.4618  1.00269710 11078
JCSAT-3A                
1 29272U 06033A   16205.49355064 -.00000355  00000-0  00000+0 0  9997
2 29272   0.0141 356.4948 0002096 130.1030 120.7244  1.00272002 36502
SYRACUSE 3B             
1 29273U 06033B   16205.08868926 -.00000054  00000-0  00000+0 0  9995
2 29273   0.0187  58.2346 0002951  61.3921 208.3495  1.00270869 36483
KOREASAT 5 (MUGUNGWHA 5)
1 29349U 06034A   16202.40587242 -.00000364  00000-0  00000+0 0  9996
2 29349   0.0167  81.4412 0001302  26.2064  90.1226  1.00270816 36340
ZHONGXING-22A           
1 29398U 06038A   16205.00609968 -.00000328  00000-0  00000+0 0  9993
2 29398   5.2181  59.8571 0005585 122.0501 222.9573  1.00273366 36141
DIRECTV 9S              
1 29494U 06043A   16205.42605935 -.00000124  00000-0  00000+0 0  9996
2 29494   0.0136 101.3958 0003292  20.3314 232.1316  1.00271817 35852
OPTUS D1                
1 29495U 06043B   16204.79923240 -.00000120  00000-0  00000+0 0  9994
2 29495   0.0346 317.6967 0003354 165.0166 265.9706  1.00271508 35886
XM-4 (BLUES)            
1 29520U 06049A   16205.27766792 -.00000033  00000-0  00000+0 0  9993
2 29520   0.0318 212.9685 0000561 318.9526 114.2342  1.00271165 35739
BADR-4                  
1 29526U 06051A   16204.91377057  .00000135  00000-0  00000-0 0  9997
2 29526   0.0475 341.1756 0001295 105.9038 208.9312  1.00272246 15052
FENGYUN 2D              
1 29640U 06053A   16204.69055516 -.00000371  00000-0  10000-3 0  9991
2 29640   3.8438  66.0958 0001706 202.5522  43.9723  1.00259772 35295
WILDBLUE-1              
1 29643U 06054A   16204.46596627 -.00000058  00000-0  00000+0 0  9990
2 29643   0.0264 103.9109 0002220  40.2326 213.0577  1.00271306 35287
